[{"OBJECT_NAME":"ONEWEB-0642","OBJECT_ID":"2023-029L","EPOCH":"2026-03-05T10:57:38.397024","MEAN_MOTION":13.19726169,"ECCENTRICITY":0.0002231,"INCLINATION":87.9233,"RA_OF_ASC_NODE":325.6442,"ARG_OF_PERICENTER":99.8505,"MEAN_ANOMALY":260.288,"EPHEMERIS_TYPE":0,"CLASSIFICATION_TYPE":"U","NORAD_CAT_ID":55806,"ELEMENT_SET_NO":999,"REV_AT_EPOCH":14522,"BSTAR":0.0001797019,"MEAN_MOTION_DOT":8.5e-7,"MEAN_MOTION_DDOT":0},{"OBJECT_NAME":"ONEWEB-0643","OBJECT_ID":"2023-029M","EPOCH":"2026-03-05T14:58:26.020128","MEAN_MOTION":13.14501974,"ECCENTRICITY":0.00021819,"INCLINATION":87.8988,"RA_OF_ASC_NODE":310.4018,"ARG_OF_PERICENTER":92.782,"MEAN_ANOMALY":267.3559,"EPHEMERIS_TYPE":0,"CLASSIFICATION_TYPE":"U","NORAD_CAT_ID":55807,"ELEMENT_SET_NO":999,"REV_AT_EPOCH":14578,"BSTAR":-0.00047139444,"MEAN_MOTION_DOT":-1.62e-6,"MEAN_MOTION_DDOT":0},{"OBJECT_NAME":"ONEWEB-0644","OBJECT_ID":"2023-029N","EPOCH":"2026-03-05T10:50:49.479648","MEAN_MOTION":13.19726479,"ECCENTRICITY":0.00019272,"INCLINATION":87.9227,"RA_OF_ASC_NODE":325.652,"ARG_OF_PERICENTER":90.0688,"MEAN_ANOMALY":270.0666,"EPHEMERIS_TYPE":0,"CLASSIFICATION_TYPE":"U","NORAD_CAT_ID":55808,"ELEMENT_SET_NO":999,"REV_AT_EPOCH":14522,"BSTAR":0.00038770153,"MEAN_MOTION_DOT":1.68e-6,"MEAN_MOTION_DDOT":0},{"OBJECT_NAME":"ONEWEB-0645","OBJECT_ID":"2023-029P","EPOCH":"2026-03-05T15:01:00.389280","MEAN_MOTION":13.19725079,"ECCENTRICITY":0.00016347,"INCLINATION":87.923,"RA_OF_ASC_NODE":325.61,"ARG_OF_PERICENTER":99.7233,"MEAN_ANOMALY":260.4085,"EPHEMERIS_TYPE":0,"CLASSIFICATION_TYPE":"U","NORAD_CAT_ID":55809,"ELEMENT_SET_NO":999,"REV_AT_EPOCH":14524,"BSTAR":9.3585345e-5,"MEAN_MOTION_DOT":5.0e-7,"MEAN_MOTION_DDOT":0},{"OBJECT_NAME":"ONEWEB-0646","OBJECT_ID":"2023-029Q","EPOCH":"2026-03-05T15:26:00.930912","MEAN_MOTION":13.19726718,"ECCENTRICITY":0.00018651,"INCLINATION":87.9235,"RA_OF_ASC_NODE":325.6064,"ARG_OF_PERICENTER":86.4217,"MEAN_ANOMALY":273.7129,"EPHEMERIS_TYPE":0,"CLASSIFICATION_TYPE":"U","NORAD_CAT_ID":55810,"ELEMENT_SET_NO":999,"REV_AT_EPOCH":14523,"BSTAR":-0.00010818284,"MEAN_MOTION_DOT":-3.0e-7,"MEAN_MOTION_DDOT":0},{"OBJECT_NAME":"ONEWEB-0648","OBJECT_ID":"2023-029R","EPOCH":"2026-03-05T16:02:22.410816","MEAN_MOTION":13.1450111,"ECCENTRICITY":0.00018109,"INCLINATION":87.8993,"RA_OF_ASC_NODE":310.3573,"ARG_OF_PERICENTER":114.325,"MEAN_ANOMALY":245.8069,"EPHEMERIS_TYPE":0,"CLASSIFICATION_TYPE":"U","NORAD_CAT_ID":55811,"ELEMENT_SET_NO":999,"REV_AT_EPOCH":14579,"BSTAR":0.00059681158,"MEAN_MOTION_DOT":2.34e-6,"MEAN_MOTION_DDOT":0},{"OBJECT_NAME":"ONEWEB-0649","OBJECT_ID":"2023-029S","EPOCH":"2026-03-05T05:07:21.101088","MEAN_MOTION":13.19725207,"ECCENTRICITY":0.00016254,"INCLINATION":87.9238,"RA_OF_ASC_NODE":325.6882,"ARG_OF_PERICENTER":90.3779,"MEAN_ANOMALY":269.754,"EPHEMERIS_TYPE":0,"CLASSIFICATION_TYPE":"U","NORAD_CAT_ID":55812,"ELEMENT_SET_NO":999,"REV_AT_EPOCH":14521,"BSTAR":0.000157931,"MEAN_MOTION_DOT":7.6e-7,"MEAN_MOTION_DDOT":0},{"OBJECT_NAME":"ONEWEB-0650","OBJECT_ID":"2023-029T","EPOCH":"2026-03-05T10:28:03.595872","MEAN_MOTION":13.19727472,"ECCENTRICITY":0.00019056,"INCLINATION":87.9235,"RA_OF_ASC_NODE":325.6472,"ARG_OF_PERICENTER":92.8669,"MEAN_ANOMALY":267.2682,"EPHEMERIS_TYPE":0,"CLASSIFICATION_TYPE":"U","NORAD_CAT_ID":55813,"ELEMENT_SET_NO":999,"REV_AT_EPOCH":14521,"BSTAR":0.00022567261,"MEAN_MOTION_DOT":1.03e-6,"MEAN_MOTION_DDOT":0},{"OBJECT_NAME":"ONEWEB-0652","OBJECT_ID":"2023-029U","EPOCH":"2026-03-05T15:34:58.220544","MEAN_MOTION":13.14501721,"ECCENTRICITY":0.00016268,"INCLINATION":87.8987,"RA_OF_ASC_NODE":310.3768,"ARG_OF_PERICENTER":74.8254,"MEAN_ANOMALY":285.3056,"EPHEMERIS_TYPE":0,"CLASSIFICATION_TYPE":"U","NORAD_CAT_ID":55814,"ELEMENT_SET_NO":999,"REV_AT_EPOCH":14576,"BSTAR":0.00011790188,"MEAN_MOTION_DOT":5.6e-7,"MEAN_MOTION_DDOT":0},{"OBJECT_NAME":"ONEWEB-0653","OBJECT_ID":"2023-029V","EPOCH":"2026-03-05T15:12:07.844832","MEAN_MOTION":13.14501772,"ECCENTRICITY":0.0001459,"INCLINATION":87.8998,"RA_OF_ASC_NODE":310.3703,"ARG_OF_PERICENTER":76.9696,"MEAN_ANOMALY":283.1597,"EPHEMERIS_TYPE":0,"CLASSIFICATION_TYPE":"U","NORAD_CAT_ID":55815,"ELEMENT_SET_NO":999,"REV_AT_EPOCH":14579,"BSTAR":-0.00048164357,"MEAN_MOTION_DOT":-1.66e-6,"MEAN_MOTION_DDOT":0},{"OBJECT_NAME":"ONEWEB-0654","OBJECT_ID":"2023-029W","EPOCH":"2026-03-05T09:36:26.942976","MEAN_MOTION":13.14502581,"ECCENTRICITY":0.00015696,"INCLINATION":87.8989,"RA_OF_ASC_NODE":310.4165,"ARG_OF_PERICENTER":67.8738,"MEAN_ANOMALY":292.2558,"EPHEMERIS_TYPE":0,"CLASSIFICATION_TYPE":"U","NORAD_CAT_ID":55816,"ELEMENT_SET_NO":999,"REV_AT_EPOCH":14578,"BSTAR":-0.00040338584,"MEAN_MOTION_DOT":-1.37e-6,"MEAN_MOTION_DDOT":0},{"OBJECT_NAME":"ONEWEB-0656","OBJECT_ID":"2023-029X","EPOCH":"2026-03-05T13:39:03.912192","MEAN_MOTION":13.20772587,"ECCENTRICITY":0.00015021,"INCLINATION":87.9177,"RA_OF_ASC_NODE":295.1177,"ARG_OF_PERICENTER":68.7719,"MEAN_ANOMALY":291.3574,"EPHEMERIS_TYPE":0,"CLASSIFICATION_TYPE":"U","NORAD_CAT_ID":55817,"ELEMENT_SET_NO":999,"REV_AT_EPOCH":14747,"BSTAR":0.00015070221,"MEAN_MOTION_DOT":7.4e-7,"MEAN_MOTION_DDOT":0},{"OBJECT_NAME":"ONEWEB-0657","OBJECT_ID":"2023-029Y","EPOCH":"2026-03-05T04:53:43.705248","MEAN_MOTION":13.19725882,"ECCENTRICITY":0.00022643,"INCLINATION":87.9236,"RA_OF_ASC_NODE":325.6922,"ARG_OF_PERICENTER":67.2707,"MEAN_ANOMALY":292.8665,"EPHEMERIS_TYPE":0,"CLASSIFICATION_TYPE":"U","NORAD_CAT_ID":55818,"ELEMENT_SET_NO":999,"REV_AT_EPOCH":14519,"BSTAR":0.00027820394,"MEAN_MOTION_DOT":1.24e-6,"MEAN_MOTION_DDOT":0},{"OBJECT_NAME":"ONEWEB-0658","OBJECT_ID":"2023-029Z","EPOCH":"2026-03-05T10:14:25.795680","MEAN_MOTION":13.19726092,"ECCENTRICITY":0.00019685,"INCLINATION":87.9245,"RA_OF_ASC_NODE":325.6147,"ARG_OF_PERICENTER":90.8442,"MEAN_ANOMALY":269.2916,"EPHEMERIS_TYPE":0,"CLASSIFICATION_TYPE":"U","NORAD_CAT_ID":55819,"ELEMENT_SET_NO":999,"REV_AT_EPOCH":14523,"BSTAR":0.00026713351,"MEAN_MOTION_DOT":1.2e-6,"MEAN_MOTION_DDOT":0},{"OBJECT_NAME":"ONEWEB-0660","OBJECT_ID":"2023-029AA","EPOCH":"2026-03-05T14:33:19.173888","MEAN_MOTION":13.14502971,"ECCENTRICITY":0.00014735,"INCLINATION":87.8997,"RA_OF_ASC_NODE":310.3617,"ARG_OF_PERICENTER":96.2556,"MEAN_ANOMALY":263.8742,"EPHEMERIS_TYPE":0,"CLASSIFICATION_TYPE":"U","NORAD_CAT_ID":55820,"ELEMENT_SET_NO":999,"REV_AT_EPOCH":14579,"BSTAR":0.00010407943,"MEAN_MOTION_DOT":5.1e-7,"MEAN_MOTION_DDOT":0},{"OBJECT_NAME":"ONEWEB-0661","OBJECT_ID":"2023-029AB","EPOCH":"2026-03-05T15:23:32.878464","MEAN_MOTION":13.14502376,"ECCENTRICITY":0.00013275,"INCLINATION":87.8986,"RA_OF_ASC_NODE":310.411,"ARG_OF_PERICENTER":88.9643,"MEAN_ANOMALY":271.1639,"EPHEMERIS_TYPE":0,"CLASSIFICATION_TYPE":"U","NORAD_CAT_ID":55821,"ELEMENT_SET_NO":999,"REV_AT_EPOCH":14578,"BSTAR":-0.00032770668,"MEAN_MOTION_DOT":-1.09e-6,"MEAN_MOTION_DDOT":0}]
