ONEWEB-0642             
1 55806U 23029L   26064.45669441  .00000085  00000+0  17970-3 0  9996
2 55806  87.9233 325.6442 0002231  99.8505 260.2880 13.19726169145223
ONEWEB-0643             
1 55807U 23029M   26064.62391227 -.00000162  00000+0 -47139-3 0  9998
2 55807  87.8988 310.4018 0002181  92.7820 267.3559 13.14501974145789
ONEWEB-0644             
1 55808U 23029N   26064.45196157  .00000168  00000+0  38770-3 0  9990
2 55808  87.9227 325.6520 0001927  90.0688 270.0666 13.19726479145226
ONEWEB-0645             
1 55809U 23029P   26064.62569895  .00000050  00000+0  93585-4 0  9999
2 55809  87.9230 325.6100 0001634  99.7233 260.4085 13.19725079145247
ONEWEB-0646             
1 55810U 23029Q   26064.64306633 -.00000030  00000+0 -10818-3 0  9999
2 55810  87.9235 325.6064 0001865  86.4217 273.7129 13.19726718145230
ONEWEB-0648             
1 55811U 23029R   26064.66831494  .00000234  00000+0  59681-3 0  9995
2 55811  87.8993 310.3573 0001810 114.3250 245.8069 13.14501110145791
ONEWEB-0649             
1 55812U 23029S   26064.21343867  .00000076  00000+0  15793-3 0  9999
2 55812  87.9238 325.6882 0001625  90.3779 269.7540 13.19725207145216
ONEWEB-0650             
1 55813U 23029T   26064.43615273  .00000103  00000+0  22567-3 0  9995
2 55813  87.9235 325.6472 0001905  92.8669 267.2682 13.19727472145211
ONEWEB-0652             
1 55814U 23029U   26064.64928496  .00000056  00000+0  11790-3 0  9996
2 55814  87.8987 310.3768 0001626  74.8254 285.3056 13.14501721145762
ONEWEB-0653             
1 55815U 23029V   26064.63342413 -.00000166  00000+0 -48164-3 0  9994
2 55815  87.8998 310.3703 0001459  76.9696 283.1597 13.14501772145796
ONEWEB-0654             
1 55816U 23029W   26064.40031184 -.00000137  00000+0 -40339-3 0  9994
2 55816  87.8989 310.4165 0001569  67.8738 292.2558 13.14502581145784
ONEWEB-0656             
1 55817U 23029X   26064.56879528  .00000074  00000+0  15070-3 0  9996
2 55817  87.9177 295.1177 0001502  68.7719 291.3574 13.20772587147471
ONEWEB-0657             
1 55818U 23029Y   26064.20397807  .00000124  00000+0  27820-3 0  9995
2 55818  87.9236 325.6922 0002264  67.2707 292.8665 13.19725882145190
ONEWEB-0658             
1 55819U 23029Z   26064.42668745  .00000120  00000+0  26713-3 0  9998
2 55819  87.9245 325.6147 0001968  90.8442 269.2916 13.19726092145234
ONEWEB-0660             
1 55820U 23029AA  26064.60647192  .00000051  00000+0  10408-3 0  9990
2 55820  87.8997 310.3617 0001473  96.2556 263.8742 13.14502971145790
ONEWEB-0661             
1 55821U 23029AB  26064.64135276 -.00000109  00000+0 -32771-3 0  9993
2 55821  87.8986 310.4110 0001327  88.9643 271.1639 13.14502376145786
